STARLINK-2432           
1 47840U 21018BF  26068.74319320  .00000310  00000+0  39720-4 0  9994
2 47840  53.0558 231.3746 0001222  86.2231 273.8898 15.06401384276884
TEIKYOSAT-4 (OORURI)    
1 49396U 21102B   26068.67534185  .00002438  00000+0  15740-3 0  9994
2 49396  97.3797 101.9931 0010345 276.5421  83.4630 15.09119208237719
