[{"OBJECT_NAME":"STARLINK-2432","OBJECT_ID":"2021-018BF","EPOCH":"2026-03-09T17:50:11.892480","MEAN_MOTION":15.06401384,"ECCENTRICITY":0.00012222,"INCLINATION":53.0558,"RA_OF_ASC_NODE":231.3746,"ARG_OF_PERICENTER":86.2231,"MEAN_ANOMALY":273.8898,"EPHEMERIS_TYPE":0,"CLASSIFICATION_TYPE":"U","NORAD_CAT_ID":47840,"ELEMENT_SET_NO":999,"REV_AT_EPOCH":27688,"BSTAR":3.9720129e-5,"MEAN_MOTION_DOT":3.1e-6,"MEAN_MOTION_DDOT":0},{"OBJECT_NAME":"TEIKYOSAT-4 (OORURI)","OBJECT_ID":"2021-102B","EPOCH":"2026-03-09T16:12:29.535840","MEAN_MOTION":15.09119208,"ECCENTRICITY":0.00103447,"INCLINATION":97.3797,"RA_OF_ASC_NODE":101.9931,"ARG_OF_PERICENTER":276.5421,"MEAN_ANOMALY":83.463,"EPHEMERIS_TYPE":0,"CLASSIFICATION_TYPE":"U","NORAD_CAT_ID":49396,"ELEMENT_SET_NO":999,"REV_AT_EPOCH":23771,"BSTAR":0.00015739844,"MEAN_MOTION_DOT":2.438e-5,"MEAN_MOTION_DDOT":0}]
